[{"OBJECT_NAME":"STARLINK-5637","OBJECT_ID":"2023-014AT","EPOCH":"2026-03-09T12:25:46.435584","MEAN_MOTION":14.98330096,"ECCENTRICITY":0.00033072,"INCLINATION":69.9993,"RA_OF_ASC_NODE":104.8652,"ARG_OF_PERICENTER":270.0583,"MEAN_ANOMALY":90.0197,"EPHEMERIS_TYPE":0,"CLASSIFICATION_TYPE":"U","NORAD_CAT_ID":55432,"ELEMENT_SET_NO":999,"REV_AT_EPOCH":17104,"BSTAR":7.360521e-6,"MEAN_MOTION_DOT":-5.0e-8,"MEAN_MOTION_DDOT":0},{"OBJECT_NAME":"COSMOS 252 DEB","OBJECT_ID":"1968-097ES","EPOCH":"2026-03-08T18:49:11.095680","MEAN_MOTION":13.044829,"ECCENTRICITY":0.08871149,"INCLINATION":62.3806,"RA_OF_ASC_NODE":209.967,"ARG_OF_PERICENTER":248.156,"MEAN_ANOMALY":102.2861,"EPHEMERIS_TYPE":0,"CLASSIFICATION_TYPE":"U","NORAD_CAT_ID":19309,"ELEMENT_SET_NO":999,"REV_AT_EPOCH":65811,"BSTAR":0.00039905757,"MEAN_MOTION_DOT":8.18e-6,"MEAN_MOTION_DDOT":0}]
